NORAD_CAT_ID,OBJECT_NAME,OBJECT_TYPE,EPOCH,MEAN_MOTION,ECCENTRICITY,INCLINATION,RA_OF_ASC_NODE,ARG_OF_PERICENTER,MEAN_ANOMALY,BSTAR,MEAN_MOTION_DOT,MEAN_MOTION_DDOT,TLE_LINE0,TLE_LINE1,TLE_LINE2,SEMIMAJOR_AXIS,PERIOD,APOGEE,PERIGEE,DECAYED
52092.0,STARLINK-3716,PAYLOAD,2023-11-04 01:37:31,15.0883795,0.0001785,53.2177,334.6446,89.139,270.9807,0.00013988,1.939e-05,0.0,0 STARLINK-3716,1 52092U 22029E   23308.06772316  .00001939  00000-0  13988-3 0  9995,2 52092  53.2177 334.6446 0001785  89.1390 270.9807 15.08837950 91331,6917.887,95.438,540.986,538.517,0.0
52092.0,STARLINK-3716,PAYLOAD,2023-11-04 11:09:50,15.08843298,0.0001536,53.218,332.8605,99.4446,260.672,0.00042425,6.471e-05,0.0,0 STARLINK-3716,1 52092U 22029E   23308.46516307  .00006471  00000-0  42425-3 0  9999,2 52092  53.2180 332.8605 0001536  99.4446 260.6720 15.08843298 91390,6917.87,95.437,540.798,538.673,0.0
52092.0,STARLINK-3716,PAYLOAD,2023-11-04 19:06:45,15.08844598,0.0001489,53.2186,331.3722,107.3296,252.7859,0.00040474,6.16e-05,0.0,0 STARLINK-3716,1 52092U 22029E   23308.79636293  .00006160  00000-0  40474-3 0  9999,2 52092  53.2186 331.3722 0001489 107.3296 252.7859 15.08844598 91444,6917.866,95.437,540.761,538.701,0.0
52092.0,STARLINK-3716,PAYLOAD,2023-11-05 07:49:50,15.08864269,0.0001596,53.2174,328.9955,95.9827,264.1347,0.00099564,0.00015604,0.0,0 STARLINK-3716,1 52092U 22029E   23309.32627933  .00015604  00000-0  99564-3 0  9997,2 52092  53.2174 328.9955 0001596  95.9827 264.1347 15.08864269 91527,6917.806,95.436,540.775,538.567,0.0
52092.0,STARLINK-3716,PAYLOAD,2023-11-05 18:57:32,15.0885259,0.0001654,53.2185,326.913,93.8761,266.242,0.00039147,5.95e-05,0.0,0 STARLINK-3716,1 52092U 22029E   23309.78995902  .00005950  00000-0  39147-3 0  9995,2 52092  53.2185 326.9130 0001654  93.8761 266.2420 15.08852590 91597,6917.842,95.437,540.851,538.563,0.0
52092.0,STARLINK-3716,PAYLOAD,2023-11-06 07:40:36,15.08877639,0.0001914,53.2182,324.5345,92.643,267.4781,0.0011186,0.00017578,0.0,0 STARLINK-3716,1 52092U 22029E   23310.31987015  .00017578  00000-0  11186-2 0  9993,2 52092  53.2182 324.5345 0001914  92.6430 267.4781 15.08877639 91678,6917.765,95.435,540.954,538.306,0.0
52092.0,STARLINK-3716,PAYLOAD,2023-11-07 04:20:39,15.08800288,0.0001521,53.2193,320.6657,107.1506,252.9653,-0.0006041,-9.879e-05,0.0,0 STARLINK-3716,1 52092U 22029E   23311.18101482 -.00009879  00000-0 -60410-3 0  9997,2 52092  53.2193 320.6657 0001521 107.1506 252.9653 15.08800288 91801,6918.002,95.44,540.919,538.815,0.0
52092.0,STARLINK-3716,PAYLOAD,2023-11-07 10:42:13,15.08800035,0.0001381,53.2188,319.4785,98.5242,261.5907,-0.00047192,-7.782e-05,0.0,0 STARLINK-3716,1 52092U 22029E   23311.44598519 -.00007782  00000-0 -47192-3 0  9990,2 52092  53.2188 319.4785 0001381  98.5242 261.5907 15.08800035 91849,6918.003,95.44,540.823,538.912,0.0
52092.0,STARLINK-3716,PAYLOAD,2023-11-08 07:22:12,15.08857667,0.0001547,53.2182,315.6134,99.8681,260.2486,0.00067272,0.0001044,0.0,0 STARLINK-3716,1 52092U 22029E   23312.30708911  .00010440  00000-0  67272-3 0  9999,2 52092  53.2182 315.6134 0001547  99.8681 260.2486 15.08857667 91979,6917.826,95.436,540.762,538.621,0.0
52092.0,STARLINK-3716,PAYLOAD,2023-11-09 04:02:14,15.08845587,0.0001319,53.218,311.747,68.9101,291.2032,0.00042764,6.526e-05,0.0,0 STARLINK-3716,1 52092U 22029E   23313.16821987  .00006526  00000-0  42764-3 0  9992,2 52092  53.2180 311.7470 0001319  68.9101 291.2032 15.08845587 92103,6917.863,95.437,540.641,538.816,0.0
52092.0,STARLINK-3716,PAYLOAD,2023-11-09 10:23:46,15.08844046,0.0001325,53.2177,310.5572,75.6345,284.4794,0.00043734,6.68e-05,0.0,0 STARLINK-3716,1 52092U 22029E   23313.43317783  .00006680  00000-0  43734-3 0  9995,2 52092  53.2177 310.5572 0001325  75.6345 284.4794 15.08844046 92143,6917.868,95.437,540.65,538.816,0.0
52092.0,STARLINK-3716,PAYLOAD,2023-11-09 16:45:19,15.08840432,0.0001372,53.218,309.3662,83.9085,276.2063,0.0002737,4.071e-05,0.0,0 STARLINK-3716,1 52092U 22029E   23313.69813769  .00004071  00000-0  27370-3 0  9998,2 52092  53.2180 309.3662 0001372  83.9085 276.2063 15.08840432 92185,6917.879,95.438,540.693,538.795,0.0
52092.0,STARLINK-3716,PAYLOAD,2023-11-10 10:14:32,15.08855983,0.0001508,53.2199,306.0951,83.7324,276.384,-3.244e-05,-8.05e-06,0.0,0 STARLINK-3716,1 52092U 22029E   23314.42676878 -.00000805  00000-0 -32440-4 0  9996,2 52092  53.2199 306.0951 0001508  83.7324 276.3840 15.08855983 92298,6917.832,95.437,540.74,538.653,0.0
52092.0,STARLINK-3716,PAYLOAD,2023-11-10 16:36:05,15.08855955,0.0001563,53.2204,304.9054,87.3817,272.7354,-7.8124e-05,-1.532e-05,0.0,0 STARLINK-3716,1 52092U 22029E   23314.69172638 -.00001532  00000-0 -78124-4 0  9997,2 52092  53.2204 304.9054 0001563  87.3817 272.7354 15.08855955 92338,6917.832,95.437,540.778,538.615,0.0
52092.0,STARLINK-3716,PAYLOAD,2023-11-11 08:29:57,15.08838768,0.0001721,53.2202,301.9335,71.6805,288.4374,1.0673e-05,-1.18e-06,0.0,0 STARLINK-3716,1 52092U 22029E   23315.35413713 -.00000118  00000-0  10673-4 0  9996,2 52092  53.2202 301.9335 0001721  71.6805 288.4374 15.08838768 92434,6917.884,95.438,540.94,538.559,0.0
52092.0,STARLINK-3716,PAYLOAD,2023-11-11 16:26:52,15.08848482,0.0001515,53.2188,300.4516,77.8832,282.233,-2.5007e-05,-6.86e-06,0.0,0 STARLINK-3716,1 52092U 22029E   23315.68533003 -.00000686  00000-0 -25007-4 0  9995,2 52092  53.2188 300.4516 0001515  77.8832 282.2330 15.08848482 92484,6917.854,95.437,540.768,538.671,0.0
52092.0,STARLINK-3716,PAYLOAD,2023-11-12 03:34:34,15.08840365,0.000156,53.2189,298.3701,87.972,272.1451,6.2304e-05,7.04e-06,0.0,0 STARLINK-3716,1 52092U 22029E   23316.14901337  .00000704  00000-0  62304-4 0  9996,2 52092  53.2189 298.3701 0001560  87.9720 272.1451 15.08840365 92556,6917.879,95.438,540.823,538.665,0.0
52092.0,STARLINK-3716,PAYLOAD,2023-11-12 05:09:57,15.0884596,0.0001555,53.2186,298.0723,84.7004,275.4165,3.6917e-05,3e-06,0.0,0 STARLINK-3716,1 52092U 22029E   23316.21525133  .00000300  00000-0  36917-4 0  9993,2 52092  53.2186 298.0723 0001555  84.7004 275.4165 15.08845960 92563,6917.862,95.437,540.803,538.651,0.0
52092.0,STARLINK-3716,PAYLOAD,2023-11-12 22:39:12,15.08837313,0.0001372,53.2183,294.8,93.9817,266.1332,6.5544e-05,7.55e-06,0.0,0 STARLINK-3716,1 52092U 22029E   23316.94389466  .00000755  00000-0  65544-4 0  9992,2 52092  53.2183 294.8000 0001372  93.9817 266.1332 15.08837313 92671,6917.889,95.438,540.703,538.804,0.0
52092.0,STARLINK-3716,PAYLOAD,2023-11-13 03:25:22,15.08831251,0.0001449,53.2185,293.908,87.5898,272.526,0.00019878,2.876e-05,0.0,0 STARLINK-3716,1 52092U 22029E   23317.14261696  .00002876  00000-0  19878-3 0  9993,2 52092  53.2185 293.9080 0001449  87.5898 272.5260 15.08831251 92704,6917.907,95.438,540.775,538.77,0.0
52092.0,STARLINK-3716,PAYLOAD,2023-11-13 05:00:44,15.08842104,0.0001418,53.2183,293.6098,93.2624,266.853,8.5607e-05,1.075e-05,0.0,0 STARLINK-3716,1 52092U 22029E   23317.20885205  .00001075  00000-0  85607-4 0  9992,2 52092  53.2183 293.6098 0001418  93.2624 266.8530 15.08842104 92711,6917.874,95.437,540.72,538.758,0.0
52092.0,STARLINK-3716,PAYLOAD,2023-11-13 22:29:59,15.08845722,0.0001636,53.219,290.3394,92.0398,268.0781,4.0374e-05,3.55e-06,0.0,0 STARLINK-3716,1 52092U 22029E   23317.93749086  .00000355  00000-0  40374-4 0  9990,2 52092  53.2190 290.3394 0001636  92.0398 268.0781 15.08845722 92822,6917.863,95.437,540.86,538.596,0.0
52092.0,STARLINK-3716,PAYLOAD,2023-11-14 09:37:40,15.0885402,0.000155,53.2195,288.2568,98.3694,261.7474,0.00011403,1.528e-05,0.0,0 STARLINK-3716,1 52092U 22029E   23318.40116244  .00001528  00000-0  11403-3 0  9990,2 52092  53.2195 288.2568 0001550  98.3694 261.7474 15.08854020 92896,6917.838,95.437,540.775,538.63,0.0
52092.0,STARLINK-3716,PAYLOAD,2023-11-14 22:20:47,15.08829985,0.0001209,53.2204,285.8806,86.9708,273.1422,-1.9909e-05,-6.05e-06,0.0,0 STARLINK-3716,1 52092U 22029E   23318.93110319 -.00000605  00000-0 -19909-4 0  9992,2 52092  53.2204 285.8806 0001209  86.9708 273.1422 15.08829985 92976,6917.911,95.438,540.612,538.94,0.0
52092.0,STARLINK-3716,PAYLOAD,2023-11-15 03:06:56,15.0883392,0.0001447,53.2195,284.9905,76.2569,283.8584,4.3575e-05,4.06e-06,0.0,0 STARLINK-3716,1 52092U 22029E   23319.12982071  .00000406  00000-0  43575-4 0  9999,2 52092  53.2195 284.9905 0001447  76.2569 283.8584 15.08833920 93002,6917.899,95.438,540.765,538.763,0.0
52092.0,STARLINK-3716,PAYLOAD,2023-11-15 14:14:38,15.08839138,0.0001449,53.2188,282.9054,94.5132,265.6026,5.2627e-05,5.5e-06,0.0,0 STARLINK-3716,1 52092U 22029E   23319.59349756  .00000550  00000-0  52627-4 0  9995,2 52092  53.2188 282.9054 0001449  94.5132 265.6026 15.08839138 93071,6917.883,95.438,540.75,538.746,0.0
52092.0,STARLINK-3716,PAYLOAD,2023-11-15 22:11:33,15.08841415,0.0001453,53.2184,281.4171,100.9235,259.192,7.7548e-05,9.46e-06,0.0,0 STARLINK-3716,1 52092U 22029E   23319.92469604  .00000946  00000-0  77548-4 0  9995,2 52092  53.2184 281.4171 0001453 100.9235 259.1920 15.08841415 93120,6917.876,95.437,540.746,538.736,0.0
52092.0,STARLINK-3716,PAYLOAD,2023-11-16 02:57:42,15.08845477,0.0001495,53.2178,280.5259,93.9553,266.161,0.00014908,2.086e-05,0.0,0 STARLINK-3716,1 52092U 22029E   23320.12341349  .00002086  00000-0  14908-3 0  9991,2 52092  53.2178 280.5259 0001495  93.9553 266.1610 15.08845477 93159,6917.864,95.437,540.763,538.694,0.0
52092.0,STARLINK-3716,PAYLOAD,2023-11-16 07:43:52,15.08850463,0.0001501,53.2178,279.6328,96.806,263.3103,0.00020756,3.018e-05,0.0,0 STARLINK-3716,1 52092U 22029E   23320.32213038  .00003018  00000-0  20756-3 0  9990,2 52092  53.2178 279.6328 0001501  96.8060 263.3103 15.08850463 93188,6917.848,95.437,540.752,538.675,0.0
52092.0,STARLINK-3716,PAYLOAD,2023-11-17 04:23:53,15.08835872,0.0001459,53.2179,275.7693,89.0188,271.0971,7.7662e-05,9.48e-06,0.0,0 STARLINK-3716,1 52092U 22029E   23321.18326058  .00000948  00000-0  77662-4 0  9990,2 52092  53.2179 275.7693 0001459  89.0188 271.0971 15.08835872 93319,6917.893,95.438,540.767,538.749,0.0
